{"type":"FeatureCollection","features":[{"type":"Feature","properties":{"n":"Nariño"},"geometry":{"type":"MultiPolygon","coordinates":[[[[-78.641,1.259],[-78.684,1.282],[-78.719,1.341],[-78.829,1.434],[-78.813,1.442],[-78.854,1.49],[-78.861,1.558],[-78.9,1.545],[-79.022,1.638],[-78.846,1.822],[-78.759,1.831],[-78.571,1.782],[-78.545,1.915],[-78.591,1.897],[-78.586,2.0],[-78.608,2.028],[-78.629,2.025],[-78.647,1.981],[-78.666,1.983],[-78.703,2.19],[-78.574,2.433],[-78.559,2.449],[-78.559,2.382],[-78.525,2.496],[-78.506,2.491],[-78.432,2.587],[-78.346,2.648],[-78.278,2.543],[-78.255,2.542],[-78.27,2.635],[-78.247,2.664],[-78.208,2.537],[-78.132,2.493],[-78.085,2.516],[-78.096,2.651],[-77.984,2.587],[-77.953,2.556],[-77.933,2.477],[-77.949,2.382],[-77.84,2.177],[-77.703,2.143],[-77.446,2.221],[-77.313,2.171],[-77.301,2.155],[-77.326,2.062],[-77.199,1.961],[-77.283,1.856],[-77.325,1.689],[-77.233,1.663],[-77.151,1.687],[-77.099,1.668],[-77.045,1.704],[-76.941,1.728],[-76.845,1.607],[-76.854,1.558],[-76.924,1.503],[-76.912,1.313],[-76.942,1.287],[-76.97,1.295],[-76.991,1.226],[-77.089,1.186],[-77.087,1.073],[-77.032,1.041],[-77.038,0.996],[-77.119,0.835],[-77.239,0.697],[-77.109,0.585],[-77.125,0.54],[-77.086,0.391],[-77.104,0.354],[-77.185,0.335],[-77.363,0.375],[-77.424,0.408],[-77.468,0.651],[-77.543,0.656],[-77.646,0.716],[-77.667,0.748],[-77.673,0.82],[-77.703,0.843],[-77.848,0.809],[-77.903,0.832],[-77.918,0.874],[-78.078,0.901],[-78.25,1.02],[-78.349,1.056],[-78.485,1.193],[-78.57,1.196],[-78.602,1.264],[-78.641,1.259]]],[[[-78.131,2.627],[-78.096,2.54],[-78.107,2.513],[-78.134,2.504],[-78.207,2.575],[-78.216,2.597],[-78.195,2.632],[-78.215,2.682],[-78.145,2.674],[-78.131,2.627]]]]}},{"type":"Feature","properties":{"n":"Putumayo"},"geometry":{"type":"Polygon","coordinates":[[[-76.178,0.4],[-76.244,0.415],[-76.312,0.459],[-76.365,0.407],[-76.416,0.402],[-76.408,0.255],[-76.565,0.216],[-76.627,0.259],[-76.725,0.278],[-76.734,0.233],[-76.798,0.25],[-76.882,0.24],[-76.946,0.287],[-77.045,0.306],[-77.104,0.354],[-77.085,0.397],[-77.125,0.54],[-77.112,0.594],[-77.239,0.697],[-77.119,0.835],[-77.029,1.023],[-77.087,1.073],[-77.089,1.186],[-76.977,1.238],[-76.97,1.295],[-76.942,1.287],[-76.912,1.313],[-76.773,1.314],[-76.67,1.434],[-76.638,1.432],[-76.588,1.407],[-76.52,1.302],[-76.546,1.118],[-76.537,1.076],[-76.492,1.025],[-76.351,0.977],[-76.21,0.972],[-76.148,1.007],[-76.086,1.011],[-76.062,1.043],[-75.95,1.035],[-75.918,1.019],[-75.9,0.954],[-75.828,0.879],[-75.732,0.848],[-75.6,0.847],[-75.459,0.749],[-75.274,0.736],[-75.212,0.619],[-75.216,0.552],[-75.187,0.496],[-75.096,0.507],[-75.072,0.473],[-74.996,0.47],[-74.962,0.271],[-74.855,0.222],[-74.743,0.2],[-74.683,0.151],[-74.677,0.11],[-74.696,0.075],[-74.658,0.054],[-74.684,0.006],[-74.664,-0.054],[-74.61,-0.064],[-74.593,-0.102],[-74.559,-0.117],[-74.47,-0.126],[-74.43,-0.083],[-74.399,-0.132],[-74.328,-0.123],[-74.282,-0.149],[-74.252,-0.221],[-74.193,-0.22],[-74.169,-0.258],[-74.117,-0.246],[-73.99,-0.35],[-73.864,-0.393],[-74.415,-0.564],[-74.423,-0.538],[-74.562,-0.439],[-74.642,-0.34],[-74.687,-0.353],[-74.718,-0.327],[-74.791,-0.313],[-74.755,-0.278],[-74.825,-0.17],[-74.873,-0.222],[-74.933,-0.209],[-75.015,-0.141],[-75.051,-0.134],[-75.142,-0.043],[-75.222,-0.032],[-75.24,-0.075],[-75.283,-0.107],[-75.465,-0.04],[-75.627,0.079],[-75.79,0.084],[-75.952,0.204],[-76.053,0.364],[-76.12,0.352],[-76.136,0.397],[-76.178,0.4]]]}},{"type":"Feature","properties":{"n":"Chocó"},"geometry":{"type":"MultiPolygon","coordinates":[[[[-77.469,8.538],[-77.429,8.593],[-77.434,8.628],[-77.375,8.651],[-77.367,8.678],[-77.299,8.574],[-77.275,8.496],[-77.144,8.421],[-77.053,8.276],[-76.985,8.256],[-76.961,8.17],[-76.96,8.065],[-77.003,7.999],[-77.022,7.898],[-77.093,7.837],[-77.12,7.842],[-77.113,7.788],[-77.126,7.781],[-76.981,7.639],[-76.877,7.565],[-76.692,7.354],[-76.543,7.267],[-76.508,7.186],[-76.505,7.074],[-76.546,6.991],[-76.683,7.026],[-76.817,7.008],[-76.836,6.986],[-76.802,6.927],[-76.811,6.863],[-76.836,6.841],[-76.883,6.845],[-76.973,6.81],[-76.949,6.732],[-76.97,6.705],[-76.945,6.702],[-76.932,6.672],[-76.906,6.694],[-76.901,6.65],[-76.866,6.64],[-76.896,6.615],[-76.893,6.582],[-76.866,6.582],[-76.853,6.54],[-76.788,6.483],[-76.803,6.451],[-76.784,6.438],[-76.805,6.423],[-76.784,6.363],[-76.798,6.301],[-76.771,6.287],[-76.714,6.178],[-76.674,6.162],[-76.35,6.192],[-76.258,6.174],[-76.217,6.035],[-76.189,5.998],[-76.111,5.976],[-76.105,5.93],[-76.136,5.837],[-76.088,5.728],[-76.098,5.643],[-76.042,5.577],[-76.08,5.538],[-76.093,5.455],[-76.166,5.409],[-76.183,5.352],[-76.18,5.309],[-76.098,5.175],[-76.076,5.036],[-76.141,4.97],[-76.17,4.889],[-76.299,4.764],[-76.317,4.679],[-76.427,4.582],[-76.456,4.421],[-76.547,4.392],[-76.496,4.32],[-76.497,4.238],[-76.455,4.216],[-76.443,4.188],[-76.521,4.137],[-76.575,4.056],[-76.654,4.063],[-76.743,3.995],[-76.893,4.042],[-76.957,4.123],[-77.066,4.104],[-77.155,4.183],[-77.221,4.168],[-77.254,4.242],[-77.236,4.265],[-77.337,4.269],[-77.387,4.347],[-77.345,4.446],[-77.313,4.471],[-77.333,4.471],[-77.319,4.684],[-77.299,4.656],[-77.292,4.682],[-77.319,4.71],[-77.326,4.753],[-77.258,4.704],[-77.319,4.821],[-77.34,4.813],[-77.349,4.854],[-77.373,5.149],[-77.346,5.245],[-77.381,5.375],[-77.409,5.386],[-77.408,5.403],[-77.381,5.403],[-77.408,5.465],[-77.462,5.501],[-77.501,5.502],[-77.511,5.485],[-77.559,5.503],[-77.491,5.595],[-77.405,5.628],[-77.333,5.615],[-77.319,5.663],[-77.261,5.701],[-77.246,5.734],[-77.246,5.787],[-77.313,5.896],[-77.353,6.026],[-77.367,5.999],[-77.484,6.189],[-77.483,6.294],[-77.415,6.239],[-77.381,6.301],[-77.378,6.352],[-77.399,6.388],[-77.374,6.404],[-77.36,6.39],[-77.381,6.445],[-77.345,6.566],[-77.415,6.636],[-77.411,6.694],[-77.463,6.721],[-77.538,6.664],[-77.532,6.712],[-77.593,6.828],[-77.671,6.88],[-77.696,6.849],[-77.692,6.947],[-77.653,6.977],[-77.665,7.016],[-77.696,7.075],[-77.689,7.047],[-77.896,7.235],[-77.82,7.477],[-77.755,7.486],[-77.731,7.53],[-77.766,7.626],[-77.764,7.706],[-77.74,7.719],[-77.68,7.671],[-77.613,7.537],[-77.58,7.528],[-77.34,7.707],[-77.38,7.774],[-77.3,7.902],[-77.163,7.939],[-77.201,7.982],[-77.231,8.099],[-77.317,8.251],[-77.374,8.289],[-77.391,8.394],[-77.422,8.456],[-77.489,8.474],[-77.469,8.538]]],[[[-77.353,4.265],[-77.272,4.258],[-77.303,4.218],[-77.333,4.245],[-77.466,4.237],[-77.55,4.205],[-77.544,4.232],[-77.5,4.261],[-77.436,4.258],[-77.463,4.286],[-77.428,4.286],[-77.452,4.292],[-77.415,4.321],[-77.436,4.327],[-77.428,4.341],[-77.353,4.265]]]]}},{"type":"Feature","properties":{"n":"Guainía"},"geometry":{"type":"Polygon","coordinates":[[[-67.065,1.173],[-67.086,1.176],[-67.098,1.253],[-67.074,1.541],[-67.117,1.71],[-67.265,1.933],[-67.341,2.09],[-67.382,2.123],[-67.44,2.14],[-67.593,2.055],[-67.821,1.784],[-67.929,1.741],[-67.998,1.75],[-68.032,1.778],[-68.111,1.942],[-68.177,1.973],[-68.192,2.015],[-68.28,1.829],[-68.248,1.822],[-68.239,1.77],[-68.194,1.764],[-68.189,1.736],[-68.163,1.721],[-69.352,1.72],[-69.542,1.773],[-69.841,1.708],[-70.05,1.781],[-70.164,1.885],[-70.119,2.007],[-70.103,2.122],[-69.994,2.213],[-70.037,2.277],[-70.063,2.287],[-70.19,2.252],[-70.285,2.258],[-70.304,2.226],[-70.407,2.263],[-70.493,2.245],[-70.503,2.276],[-70.622,2.328],[-70.676,2.438],[-70.747,2.529],[-70.9,2.593],[-70.909,2.611],[-70.5,2.785],[-70.359,2.861],[-70.333,2.91],[-70.281,2.942],[-70.292,3.03],[-70.263,3.063],[-70.309,3.084],[-70.203,3.196],[-70.164,3.186],[-70.16,3.228],[-70.129,3.204],[-70.142,3.276],[-70.116,3.29],[-70.151,3.348],[-70.12,3.417],[-70.069,3.425],[-70.055,3.485],[-70.083,3.525],[-70.011,3.529],[-69.963,3.505],[-69.926,3.556],[-69.894,3.566],[-69.867,3.531],[-69.849,3.559],[-69.722,3.569],[-69.658,3.532],[-69.649,3.595],[-69.611,3.619],[-69.612,3.686],[-69.474,3.716],[-69.431,3.686],[-69.346,3.713],[-69.302,3.7],[-69.28,3.729],[-69.191,3.68],[-69.184,3.652],[-69.14,3.675],[-69.106,3.656],[-69.09,3.609],[-69.041,3.655],[-68.962,3.641],[-68.938,3.707],[-68.907,3.689],[-68.848,3.71],[-68.804,3.69],[-68.81,3.728],[-68.744,3.736],[-68.74,3.773],[-68.689,3.798],[-68.643,3.782],[-68.58,3.808],[-68.546,3.796],[-68.505,3.845],[-68.438,3.873],[-68.445,3.913],[-68.373,3.924],[-68.351,3.968],[-68.368,3.995],[-68.356,4.02],[-68.268,4.003],[-68.252,3.943],[-68.188,3.973],[-68.183,3.922],[-68.157,3.928],[-68.093,4.005],[-68.049,3.956],[-68.013,3.998],[-67.999,3.936],[-67.951,3.957],[-67.877,3.923],[-67.838,3.924],[-67.797,3.954],[-67.717,4.04],[-67.632,3.762],[-67.595,3.731],[-67.537,3.736],[-67.5,3.718],[-67.404,3.504],[-67.305,3.426],[-67.309,3.384],[-67.396,3.267],[-67.452,3.244],[-67.839,2.886],[-67.856,2.79],[-67.823,2.827],[-67.751,2.842],[-67.69,2.806],[-67.627,2.813],[-67.594,2.776],[-67.576,2.691],[-67.5,2.675],[-67.471,2.627],[-67.341,2.51],[-67.325,2.475],[-67.19,2.394],[-67.174,2.336],[-67.217,2.266],[-67.178,2.154],[-67.115,2.103],[-67.133,1.991],[-67.067,1.894],[-66.981,1.666],[-66.974,1.58],[-66.934,1.502],[-66.933,1.425],[-66.884,1.35],[-66.901,1.289],[-66.875,1.223],[-67.065,1.173]]]}},{"type":"Feature","properties":{"n":"Vaupés"},"geometry":{"type":"Polygon","coordinates":[[[-69.841,1.708],[-69.856,1.708],[-69.852,1.059],[-69.75,1.091],[-69.716,1.059],[-69.62,1.073],[-69.478,1.061],[-69.418,1.029],[-69.371,1.063],[-69.339,1.064],[-69.233,0.988],[-69.204,0.944],[-69.21,0.908],[-69.152,0.868],[-69.175,0.844],[-69.168,0.756],[-69.192,0.729],[-69.141,0.668],[-69.144,0.638],[-69.162,0.631],[-69.297,0.618],[-69.302,0.657],[-69.363,0.641],[-69.478,0.733],[-69.594,0.689],[-69.619,0.651],[-69.695,0.669],[-69.805,0.607],[-70.039,0.575],[-70.054,0.588],[-70.068,-0.16],[-69.934,-0.314],[-69.858,-0.341],[-69.835,-0.383],[-69.746,-0.453],[-69.65,-0.492],[-69.62,-0.525],[-69.584,-0.645],[-69.628,-0.733],[-69.573,-0.814],[-69.533,-0.934],[-69.443,-1.008],[-69.448,-1.092],[-69.399,-1.183],[-69.421,-1.239],[-69.465,-1.18],[-69.564,-1.137],[-69.651,-1.16],[-69.649,-1.055],[-69.716,-0.995],[-69.747,-0.997],[-69.774,-1.044],[-69.865,-1.026],[-69.931,-1.055],[-69.947,-1.029],[-69.903,-0.916],[-69.971,-0.936],[-70.002,-0.921],[-70.034,-0.947],[-70.1,-0.942],[-70.124,-0.974],[-70.072,-1.044],[-70.099,-1.073],[-70.138,-1.071],[-70.196,-1.023],[-70.186,-0.956],[-70.242,-0.988],[-70.28,-0.934],[-70.213,-0.852],[-70.273,-0.752],[-70.235,-0.72],[-70.244,-0.564],[-70.304,-0.557],[-70.305,-0.534],[-70.216,-0.423],[-70.28,-0.405],[-70.33,-0.434],[-70.334,-0.472],[-70.448,-0.466],[-70.457,-0.407],[-70.501,-0.36],[-70.567,-0.36],[-70.616,-0.321],[-70.661,-0.324],[-70.741,-0.279],[-70.761,-0.281],[-70.787,-0.322],[-70.847,-0.321],[-70.939,-0.146],[-70.935,-0.071],[-70.984,0.001],[-71.042,-0.003],[-71.14,0.038],[-71.174,0.116],[-71.268,0.098],[-71.421,0.192],[-71.539,0.178],[-71.689,0.258],[-71.787,0.373],[-71.847,0.356],[-71.843,0.417],[-71.936,0.487],[-71.933,0.555],[-71.961,0.58],[-71.979,0.565],[-71.995,0.576],[-72.036,0.664],[-71.787,0.917],[-71.757,0.971],[-71.673,0.982],[-71.61,1.043],[-71.553,1.161],[-71.528,1.117],[-71.505,1.115],[-71.553,1.216],[-71.552,1.262],[-71.441,1.548],[-71.405,1.599],[-71.391,1.732],[-71.264,1.673],[-71.16,1.756],[-70.968,1.853],[-70.905,1.919],[-70.655,1.904],[-70.499,1.952],[-70.444,1.988],[-70.202,2.031],[-70.105,2.101],[-70.119,2.007],[-70.162,1.902],[-70.157,1.869],[-70.0,1.755],[-69.841,1.708]]]}},{"type":"Feature","properties":{"n":"Amazonas"},"geometry":{"type":"Polygon","coordinates":[[[-69.421,-1.239],[-69.434,-1.422],[-69.965,-4.236],[-70.031,-4.132],[-70.188,-4.029],[-70.217,-3.925],[-70.311,-3.829],[-70.378,-3.819],[-70.439,-3.868],[-70.491,-3.878],[-70.734,-3.782],[-70.051,-2.715],[-70.095,-2.633],[-70.106,-2.625],[-70.15,-2.669],[-70.184,-2.62],[-70.236,-2.625],[-70.274,-2.546],[-70.296,-2.535],[-70.365,-2.558],[-70.376,-2.533],[-70.35,-2.518],[-70.358,-2.487],[-70.445,-2.499],[-70.484,-2.453],[-70.579,-2.405],[-70.599,-2.447],[-70.648,-2.451],[-70.707,-2.328],[-70.788,-2.307],[-70.905,-2.211],[-71.021,-2.197],[-71.03,-2.264],[-71.12,-2.252],[-71.143,-2.263],[-71.162,-2.31],[-71.209,-2.339],[-71.253,-2.327],[-71.308,-2.348],[-71.315,-2.334],[-71.421,-2.376],[-71.432,-2.355],[-71.412,-2.327],[-71.456,-2.255],[-71.481,-2.266],[-71.498,-2.315],[-71.538,-2.223],[-71.679,-2.17],[-71.731,-2.19],[-71.746,-2.132],[-71.836,-2.18],[-71.949,-2.324],[-72.062,-2.32],[-72.176,-2.41],[-72.251,-2.396],[-72.282,-2.406],[-72.284,-2.433],[-72.378,-2.451],[-72.442,-2.405],[-72.563,-2.383],[-72.644,-2.334],[-72.683,-2.405],[-72.712,-2.422],[-72.734,-2.368],[-72.762,-2.402],[-72.805,-2.378],[-72.935,-2.425],[-72.988,-2.338],[-73.056,-2.3],[-73.084,-2.345],[-73.099,-2.315],[-73.159,-2.293],[-73.198,-2.214],[-73.111,-2.073],[-73.169,-1.959],[-73.159,-1.895],[-73.194,-1.837],[-73.193,-1.789],[-73.257,-1.742],[-73.268,-1.772],[-73.317,-1.765],[-73.351,-1.791],[-73.387,-1.761],[-73.44,-1.759],[-73.511,-1.699],[-73.531,-1.674],[-73.529,-1.635],[-73.485,-1.572],[-73.497,-1.478],[-73.574,-1.417],[-73.583,-1.402],[-73.563,-1.372],[-73.637,-1.255],[-73.732,-1.217],[-73.755,-1.183],[-73.803,-1.224],[-73.857,-1.211],[-73.92,-1.114],[-73.981,-1.107],[-73.983,-1.066],[-74.017,-1.092],[-74.037,-1.08],[-74.077,-0.991],[-74.092,-1.02],[-74.12,-1.021],[-74.267,-0.972],[-74.344,-0.859],[-74.289,-0.836],[-74.303,-0.785],[-74.344,-0.774],[-74.385,-0.722],[-74.365,-0.676],[-74.415,-0.564],[-73.864,-0.393],[-73.77,-0.407],[-73.714,-0.387],[-73.649,-0.417],[-73.644,-0.454],[-73.596,-0.462],[-73.554,-0.521],[-73.389,-0.531],[-73.332,-0.507],[-73.206,-0.605],[-73.165,-0.608],[-73.081,-0.594],[-72.997,-0.527],[-72.885,-0.602],[-72.75,-0.559],[-72.59,-0.673],[-72.55,-0.683],[-72.478,-0.594],[-72.422,-0.557],[-72.325,-0.629],[-72.28,-0.621],[-72.242,-0.587],[-72.232,-0.467],[-72.129,-0.326],[-72.037,-0.26],[-71.774,-0.225],[-71.689,-0.086],[-71.39,0.067],[-71.322,0.133],[-71.252,0.096],[-71.174,0.116],[-71.14,0.038],[-71.042,-0.003],[-70.997,0.009],[-70.972,-0.013],[-70.93,-0.087],[-70.939,-0.146],[-70.847,-0.321],[-70.787,-0.322],[-70.761,-0.281],[-70.741,-0.279],[-70.661,-0.324],[-70.616,-0.321],[-70.567,-0.36],[-70.501,-0.36],[-70.457,-0.407],[-70.448,-0.466],[-70.334,-0.472],[-70.33,-0.434],[-70.28,-0.405],[-70.216,-0.423],[-70.305,-0.534],[-70.304,-0.557],[-70.244,-0.564],[-70.235,-0.72],[-70.273,-0.752],[-70.213,-0.852],[-70.28,-0.934],[-70.242,-0.988],[-70.186,-0.956],[-70.196,-1.023],[-70.138,-1.071],[-70.099,-1.073],[-70.072,-1.044],[-70.124,-0.974],[-70.1,-0.942],[-70.034,-0.947],[-70.002,-0.921],[-69.971,-0.936],[-69.903,-0.916],[-69.947,-1.029],[-69.931,-1.055],[-69.865,-1.026],[-69.774,-1.044],[-69.747,-0.997],[-69.716,-0.995],[-69.649,-1.055],[-69.651,-1.16],[-69.564,-1.137],[-69.465,-1.18],[-69.421,-1.239]]]}},{"type":"Feature","properties":{"n":"La Guajira"},"geometry":{"type":"Polygon","coordinates":[[[-71.328,11.85],[-71.358,11.851],[-71.449,11.795],[-71.991,11.649],[-72.267,11.155],[-72.341,11.162],[-72.499,11.121],[-72.576,10.957],[-72.683,10.856],[-72.754,10.675],[-72.915,10.428],[-73.013,10.401],[-73.078,10.415],[-73.14,10.404],[-73.181,10.457],[-73.075,10.63],[-73.124,10.678],[-73.25,10.734],[-73.255,10.81],[-73.285,10.852],[-73.452,10.866],[-73.606,10.846],[-73.65,11.01],[-73.638,11.139],[-73.582,11.191],[-73.566,11.277],[-73.292,11.294],[-73.055,11.494],[-72.934,11.557],[-72.741,11.708],[-72.512,11.789],[-72.433,11.796],[-72.263,11.886],[-72.139,12.105],[-72.145,12.201],[-72.171,12.234],[-72.139,12.256],[-71.97,12.255],[-72.015,12.194],[-71.967,12.153],[-71.938,12.166],[-71.914,12.203],[-71.868,12.208],[-71.871,12.256],[-71.905,12.283],[-71.947,12.269],[-71.961,12.283],[-71.871,12.363],[-71.829,12.376],[-71.809,12.372],[-71.843,12.338],[-71.803,12.324],[-71.751,12.356],[-71.733,12.41],[-71.713,12.414],[-71.72,12.396],[-71.694,12.365],[-71.692,12.393],[-71.631,12.427],[-71.679,12.417],[-71.659,12.44],[-71.694,12.427],[-71.686,12.455],[-71.735,12.414],[-71.697,12.464],[-71.511,12.443],[-71.439,12.396],[-71.295,12.358],[-71.227,12.305],[-71.107,12.075],[-71.138,12.016],[-71.299,11.92],[-71.328,11.85]]]}},{"type":"Feature","properties":{"n":"Cesar"},"geometry":{"type":"Polygon","coordinates":[[[-72.915,10.428],[-72.936,10.175],[-72.988,9.999],[-72.986,9.812],[-73.108,9.578],[-73.178,9.523],[-73.324,9.256],[-73.391,9.195],[-73.391,9.173],[-73.364,9.165],[-73.417,9.151],[-73.437,9.116],[-73.448,8.866],[-73.427,8.782],[-73.562,8.609],[-73.492,8.462],[-73.527,8.381],[-73.469,8.357],[-73.456,8.324],[-73.406,8.374],[-73.42,8.455],[-73.357,8.439],[-73.367,8.333],[-73.413,8.206],[-73.409,8.128],[-73.38,8.085],[-73.376,8.03],[-73.289,7.986],[-73.291,7.946],[-73.351,7.896],[-73.357,7.811],[-73.396,7.747],[-73.484,7.682],[-73.598,7.737],[-73.752,7.741],[-73.744,7.831],[-73.677,7.893],[-73.67,7.929],[-73.729,7.987],[-73.771,8.077],[-73.796,8.213],[-73.755,8.329],[-73.762,8.459],[-73.83,8.644],[-73.808,8.817],[-73.87,8.888],[-73.8,9.056],[-73.855,9.118],[-73.879,9.184],[-73.959,9.203],[-73.956,9.295],[-73.995,9.342],[-74.001,9.399],[-74.137,9.498],[-74.027,9.591],[-73.876,9.569],[-73.826,9.597],[-73.801,9.578],[-73.784,9.597],[-73.843,9.74],[-73.842,9.79],[-73.998,9.946],[-74.066,10.054],[-74.051,10.17],[-73.906,10.368],[-73.77,10.391],[-73.571,10.512],[-73.598,10.549],[-73.614,10.65],[-73.564,10.744],[-73.646,10.771],[-73.606,10.846],[-73.452,10.866],[-73.285,10.852],[-73.255,10.81],[-73.25,10.734],[-73.124,10.678],[-73.075,10.63],[-73.181,10.457],[-73.14,10.404],[-73.078,10.415],[-73.013,10.401],[-72.915,10.428]]]}},{"type":"Feature","properties":{"n":"Norte de Santander"},"geometry":{"type":"Polygon","coordinates":[[[-73.01,9.295],[-72.955,9.104],[-72.827,9.142],[-72.791,9.114],[-72.8,9.079],[-72.675,8.652],[-72.387,8.339],[-72.396,8.257],[-72.334,8.065],[-72.35,8.043],[-72.407,8.044],[-72.43,7.991],[-72.491,7.938],[-72.459,7.894],[-72.452,7.833],[-72.483,7.649],[-72.463,7.571],[-72.479,7.484],[-72.415,7.414],[-72.206,7.382],[-72.164,7.329],[-72.164,7.221],[-72.098,7.087],[-71.994,7.013],[-72.182,7.04],[-72.242,6.979],[-72.288,7.006],[-72.326,6.928],[-72.383,6.878],[-72.505,6.915],[-72.547,6.885],[-72.561,6.999],[-72.651,6.995],[-72.67,6.973],[-72.689,7.005],[-72.745,6.989],[-72.793,7.031],[-72.879,7.06],[-72.83,7.162],[-72.837,7.208],[-72.881,7.256],[-72.845,7.301],[-72.842,7.358],[-72.898,7.429],[-72.903,7.476],[-72.984,7.547],[-72.991,7.613],[-73.216,7.63],[-73.248,7.597],[-73.261,7.545],[-73.36,7.55],[-73.497,7.601],[-73.544,7.67],[-73.64,7.745],[-73.589,7.733],[-73.505,7.679],[-73.453,7.696],[-73.366,7.792],[-73.351,7.896],[-73.287,7.96],[-73.319,8.012],[-73.376,8.03],[-73.38,8.085],[-73.409,8.128],[-73.413,8.206],[-73.367,8.333],[-73.357,8.439],[-73.42,8.455],[-73.406,8.374],[-73.462,8.328],[-73.469,8.357],[-73.529,8.385],[-73.492,8.462],[-73.562,8.588],[-73.547,8.645],[-73.427,8.782],[-73.448,8.866],[-73.437,9.116],[-73.408,9.155],[-73.212,9.173],[-73.01,9.295]]]}},{"type":"Feature","properties":{"n":"Arauca"},"geometry":{"type":"Polygon","coordinates":[[[-71.964,7.006],[-71.848,6.984],[-71.772,7.011],[-71.774,7.029],[-71.67,7.028],[-71.667,7.052],[-71.62,7.052],[-71.595,7.03],[-71.51,7.035],[-71.468,7.012],[-71.414,7.031],[-71.293,7.026],[-71.276,6.984],[-71.184,6.963],[-71.136,6.992],[-71.011,6.991],[-70.961,7.009],[-70.896,7.069],[-70.703,7.1],[-70.639,7.073],[-70.579,7.086],[-70.511,7.01],[-70.452,7.008],[-70.319,6.938],[-70.195,6.978],[-70.129,6.973],[-69.432,6.122],[-69.532,6.062],[-69.785,6.062],[-69.856,6.026],[-69.888,6.04],[-69.94,6.115],[-70.026,6.15],[-70.118,6.25],[-70.165,6.268],[-70.348,6.279],[-70.505,6.225],[-70.727,6.209],[-70.789,6.233],[-70.864,6.215],[-70.96,6.222],[-71.207,6.274],[-71.462,6.199],[-71.722,6.2],[-71.856,6.155],[-71.946,6.15],[-72.058,6.11],[-72.115,6.069],[-72.156,6.074],[-72.26,6.138],[-72.345,6.263],[-72.351,6.298],[-72.273,6.432],[-72.236,6.426],[-72.136,6.504],[-72.102,6.729],[-72.053,6.782],[-71.964,7.006]]]}},{"type":"Feature","properties":{"n":"Boyacá"},"geometry":{"type":"Polygon","coordinates":[[[-71.994,7.013],[-71.965,7.001],[-72.053,6.782],[-72.102,6.729],[-72.136,6.504],[-72.236,6.426],[-72.259,6.438],[-72.282,6.422],[-72.295,6.375],[-72.354,6.334],[-72.396,6.268],[-72.416,6.204],[-72.341,6.079],[-72.393,5.901],[-72.441,5.882],[-72.447,5.854],[-72.311,5.774],[-72.238,5.683],[-72.303,5.584],[-72.319,5.506],[-72.348,5.51],[-72.398,5.564],[-72.421,5.558],[-72.59,5.354],[-72.69,5.278],[-72.808,5.384],[-72.858,5.346],[-72.938,5.24],[-72.953,5.16],[-72.906,5.083],[-72.974,4.979],[-73.031,4.985],[-73.069,4.811],[-73.053,4.735],[-73.113,4.664],[-73.218,4.678],[-73.228,4.724],[-73.296,4.73],[-73.329,4.784],[-73.368,4.798],[-73.403,4.871],[-73.523,4.888],[-73.545,4.919],[-73.518,5.024],[-73.476,5.066],[-73.522,5.237],[-73.585,5.305],[-73.59,5.386],[-73.654,5.462],[-73.792,5.508],[-73.792,5.559],[-73.813,5.562],[-73.899,5.482],[-73.907,5.442],[-74.0,5.374],[-74.089,5.42],[-74.098,5.456],[-74.148,5.453],[-74.25,5.491],[-74.257,5.545],[-74.314,5.614],[-74.288,5.682],[-74.313,5.793],[-74.339,5.826],[-74.441,5.767],[-74.534,5.791],[-74.646,5.753],[-74.662,5.772],[-74.64,5.862],[-74.591,5.918],[-74.605,5.978],[-74.574,6.002],[-74.578,6.079],[-74.605,6.136],[-74.567,6.241],[-74.519,6.282],[-74.48,6.155],[-74.42,6.074],[-74.357,6.039],[-74.29,6.071],[-74.27,6.05],[-74.239,5.982],[-74.27,5.898],[-74.257,5.848],[-74.234,5.846],[-74.175,5.901],[-74.111,5.871],[-74.088,5.824],[-74.049,5.814],[-74.008,5.752],[-73.973,5.733],[-73.894,5.747],[-73.879,5.711],[-73.737,5.761],[-73.649,5.715],[-73.589,5.989],[-73.499,6.107],[-73.438,6.07],[-73.382,6.001],[-73.401,5.922],[-73.472,5.848],[-73.468,5.813],[-73.403,5.756],[-73.351,5.863],[-73.286,5.856],[-73.219,5.982],[-73.195,5.991],[-73.127,5.955],[-73.017,5.941],[-72.992,6.0],[-72.894,6.123],[-72.817,6.153],[-72.799,6.203],[-72.755,6.23],[-72.733,6.457],[-72.794,6.533],[-72.792,6.567],[-72.762,6.574],[-72.709,6.529],[-72.662,6.435],[-72.617,6.438],[-72.551,6.49],[-72.477,6.76],[-72.478,6.844],[-72.505,6.915],[-72.383,6.878],[-72.326,6.928],[-72.288,7.006],[-72.242,6.979],[-72.182,7.04],[-71.994,7.013]]]}},{"type":"Feature","properties":{"n":"Vichada"},"geometry":{"type":"Polygon","coordinates":[[[-67.456,6.193],[-67.487,6.167],[-67.491,6.114],[-67.429,6.038],[-67.422,5.978],[-67.485,5.944],[-67.625,5.785],[-67.649,5.656],[-67.617,5.542],[-67.652,5.478],[-67.81,5.379],[-67.844,5.297],[-67.815,5.21],[-67.827,5.12],[-67.793,5.063],[-67.826,4.895],[-67.823,4.744],[-67.875,4.533],[-67.793,4.429],[-67.779,4.351],[-67.8,4.306],[-67.799,4.235],[-67.778,4.154],[-67.74,4.119],[-67.714,4.056],[-67.797,3.954],[-67.838,3.924],[-67.877,3.923],[-67.951,3.957],[-67.999,3.936],[-68.013,3.998],[-68.049,3.956],[-68.093,4.005],[-68.169,3.92],[-68.189,3.931],[-68.188,3.973],[-68.252,3.943],[-68.268,4.003],[-68.356,4.02],[-68.368,3.995],[-68.351,3.968],[-68.373,3.924],[-68.445,3.913],[-68.438,3.873],[-68.505,3.845],[-68.546,3.796],[-68.58,3.808],[-68.643,3.782],[-68.689,3.798],[-68.74,3.773],[-68.744,3.736],[-68.81,3.728],[-68.804,3.69],[-68.848,3.71],[-68.907,3.689],[-68.938,3.707],[-68.962,3.641],[-69.041,3.655],[-69.09,3.609],[-69.106,3.656],[-69.14,3.675],[-69.184,3.652],[-69.191,3.68],[-69.28,3.729],[-69.302,3.7],[-69.346,3.713],[-69.431,3.686],[-69.474,3.716],[-69.603,3.692],[-69.611,3.619],[-69.649,3.595],[-69.658,3.532],[-69.722,3.569],[-69.849,3.559],[-69.867,3.531],[-69.894,3.566],[-69.926,3.556],[-69.963,3.505],[-70.011,3.529],[-70.083,3.525],[-70.055,3.485],[-70.069,3.425],[-70.12,3.417],[-70.151,3.348],[-70.116,3.29],[-70.142,3.276],[-70.129,3.204],[-70.16,3.228],[-70.164,3.186],[-70.203,3.196],[-70.309,3.084],[-70.263,3.063],[-70.292,3.03],[-70.275,2.96],[-70.383,2.847],[-70.5,2.785],[-70.593,2.842],[-70.65,2.832],[-70.695,2.869],[-70.686,2.823],[-70.735,2.783],[-70.748,2.814],[-70.811,2.792],[-70.849,2.829],[-70.89,2.816],[-70.904,2.858],[-70.924,2.828],[-70.962,2.866],[-70.98,2.813],[-70.987,2.855],[-71.064,2.869],[-71.06,4.919],[-70.96,5.118],[-70.888,5.155],[-70.696,5.314],[-70.679,5.389],[-70.449,5.533],[-70.343,5.568],[-70.185,5.587],[-70.123,5.621],[-69.987,5.779],[-69.899,5.971],[-69.817,6.055],[-69.532,6.062],[-69.331,6.156],[-69.246,6.081],[-69.061,6.218],[-68.808,6.184],[-68.635,6.136],[-68.585,6.17],[-68.449,6.195],[-68.304,6.177],[-68.147,6.224],[-68.019,6.212],[-67.924,6.235],[-67.904,6.275],[-67.827,6.313],[-67.574,6.266],[-67.456,6.193]]]}},{"type":"Feature","properties":{"n":"Cauca"},"geometry":{"type":"MultiPolygon","coordinates":[[[[-77.902,2.696],[-77.785,2.594],[-77.84,2.577],[-77.888,2.594],[-77.868,2.64],[-77.914,2.659],[-77.916,2.697],[-77.902,2.696]]],[[[-77.806,2.662],[-77.754,2.618],[-77.759,2.603],[-77.847,2.648],[-77.883,2.725],[-77.86,2.71],[-77.847,2.724],[-77.806,2.662]]],[[[-78.074,2.647],[-77.95,2.675],[-77.918,2.632],[-77.888,2.635],[-77.904,2.58],[-77.84,2.566],[-77.76,2.592],[-77.752,2.627],[-77.799,2.676],[-77.778,2.689],[-77.798,2.699],[-77.812,2.764],[-77.734,2.786],[-77.786,2.795],[-77.765,2.816],[-77.709,2.812],[-77.689,2.792],[-77.699,2.813],[-77.735,2.822],[-77.708,2.848],[-77.668,2.867],[-77.642,2.846],[-77.636,2.87],[-77.658,2.877],[-77.709,2.861],[-77.716,2.898],[-77.696,2.929],[-77.64,2.9],[-77.62,2.932],[-77.642,2.956],[-77.627,2.991],[-77.655,3.005],[-77.665,2.985],[-77.689,2.997],[-77.724,2.97],[-77.722,2.982],[-77.571,3.138],[-77.54,3.197],[-77.509,3.195],[-77.502,3.223],[-77.48,3.227],[-77.542,3.246],[-77.465,3.302],[-77.419,3.259],[-77.372,3.17],[-77.319,3.175],[-77.261,3.124],[-77.11,3.192],[-77.015,3.168],[-76.87,3.093],[-76.829,3.105],[-76.779,3.184],[-76.673,3.108],[-76.632,3.125],[-76.609,3.098],[-76.577,3.124],[-76.553,3.11],[-76.516,3.163],[-76.448,3.204],[-76.442,3.255],[-76.463,3.285],[-76.437,3.318],[-76.256,3.283],[-76.076,3.213],[-76.092,3.203],[-76.113,3.095],[-76.045,3.036],[-76.024,2.912],[-75.819,2.735],[-75.781,2.67],[-75.823,2.53],[-75.795,2.475],[-75.844,2.428],[-75.878,2.427],[-75.966,2.491],[-76.05,2.421],[-76.234,2.352],[-76.278,2.356],[-76.379,2.42],[-76.393,2.367],[-76.357,2.272],[-76.422,2.164],[-76.417,2.131],[-76.455,2.113],[-76.551,2.122],[-76.567,2.1],[-76.565,2.014],[-76.601,1.959],[-76.577,1.88],[-76.504,1.823],[-76.382,1.659],[-76.145,1.576],[-76.227,1.465],[-76.282,1.34],[-76.297,1.196],[-76.255,1.138],[-76.16,1.133],[-76.061,1.044],[-76.078,1.021],[-76.21,0.972],[-76.351,0.977],[-76.512,1.039],[-76.546,1.118],[-76.52,1.302],[-76.588,1.407],[-76.654,1.438],[-76.773,1.314],[-76.912,1.313],[-76.924,1.503],[-76.865,1.544],[-76.844,1.599],[-76.924,1.72],[-77.045,1.704],[-77.099,1.668],[-77.151,1.687],[-77.233,1.663],[-77.325,1.689],[-77.283,1.856],[-77.199,1.961],[-77.326,2.062],[-77.301,2.155],[-77.313,2.171],[-77.446,2.221],[-77.703,2.143],[-77.84,2.177],[-77.949,2.382],[-77.932,2.467],[-77.953,2.556],[-78.074,2.647]]]]}},{"type":"Feature","properties":{"n":"Valle del Cauca"},"geometry":{"type":"Polygon","coordinates":[[[-77.465,3.302],[-77.469,3.345],[-77.381,3.388],[-77.319,3.32],[-77.367,3.402],[-77.353,3.43],[-77.333,3.412],[-77.346,3.436],[-77.333,3.512],[-77.313,3.512],[-77.316,3.48],[-77.264,3.471],[-77.285,3.498],[-77.272,3.505],[-77.299,3.512],[-77.275,3.533],[-77.326,3.532],[-77.322,3.548],[-77.278,3.546],[-77.299,3.559],[-77.278,3.566],[-77.285,3.581],[-77.21,3.581],[-77.227,3.591],[-77.189,3.663],[-77.17,3.652],[-77.118,3.678],[-77.171,3.677],[-77.175,3.693],[-77.126,3.717],[-77.185,3.704],[-77.201,3.743],[-77.195,3.758],[-77.126,3.734],[-77.175,3.758],[-77.126,3.779],[-77.15,3.814],[-77.134,3.827],[-77.12,3.799],[-77.106,3.813],[-77.114,3.853],[-77.069,3.868],[-77.032,3.916],[-77.093,3.909],[-77.079,3.922],[-77.126,3.93],[-77.123,3.886],[-77.181,3.853],[-77.253,3.841],[-77.292,3.861],[-77.272,3.885],[-77.312,3.908],[-77.3,3.969],[-77.27,3.986],[-77.272,3.964],[-77.21,3.977],[-77.244,3.977],[-77.189,4.067],[-77.264,4.108],[-77.264,4.067],[-77.299,4.067],[-77.299,4.046],[-77.319,4.053],[-77.326,3.981],[-77.346,3.93],[-77.362,3.928],[-77.374,3.964],[-77.431,4.013],[-77.43,4.044],[-77.408,4.046],[-77.435,4.153],[-77.35,4.195],[-77.299,4.179],[-77.254,4.242],[-77.221,4.168],[-77.155,4.183],[-77.066,4.104],[-76.957,4.123],[-76.893,4.042],[-76.761,3.996],[-76.73,3.999],[-76.654,4.063],[-76.575,4.056],[-76.546,4.11],[-76.473,4.156],[-76.44,4.201],[-76.497,4.238],[-76.496,4.32],[-76.546,4.395],[-76.456,4.421],[-76.427,4.582],[-76.317,4.679],[-76.299,4.764],[-76.17,4.889],[-76.141,4.97],[-76.076,5.036],[-75.986,4.911],[-75.981,4.873],[-75.922,4.872],[-75.94,4.822],[-75.919,4.77],[-75.852,4.777],[-75.854,4.732],[-75.714,4.713],[-75.716,4.659],[-75.825,4.664],[-75.862,4.613],[-75.877,4.553],[-75.867,4.458],[-75.89,4.424],[-75.809,4.397],[-75.788,4.351],[-75.838,4.122],[-75.762,4.079],[-75.745,4.042],[-75.796,4.008],[-75.989,3.647],[-75.997,3.559],[-76.049,3.442],[-76.065,3.358],[-76.044,3.314],[-76.076,3.213],[-76.256,3.283],[-76.437,3.318],[-76.463,3.285],[-76.442,3.255],[-76.448,3.204],[-76.516,3.163],[-76.553,3.11],[-76.577,3.124],[-76.609,3.098],[-76.632,3.125],[-76.673,3.108],[-76.779,3.184],[-76.829,3.105],[-76.87,3.093],[-77.015,3.168],[-77.11,3.192],[-77.261,3.124],[-77.319,3.175],[-77.372,3.17],[-77.419,3.259],[-77.465,3.302]]]}},{"type":"Feature","properties":{"n":"Antioquia"},"geometry":{"type":"Polygon","coordinates":[[[-76.985,8.256],[-76.962,8.267],[-76.963,8.204],[-76.918,8.189],[-76.929,8.158],[-76.949,8.164],[-76.943,8.129],[-76.918,8.114],[-76.896,8.117],[-76.894,8.137],[-76.832,8.137],[-76.847,8.096],[-76.825,8.103],[-76.86,8.083],[-76.839,8.055],[-76.866,8.062],[-76.832,8.027],[-76.908,8.044],[-76.934,7.965],[-76.907,7.93],[-76.854,7.913],[-76.757,7.924],[-76.731,8.051],[-76.759,8.115],[-76.748,8.172],[-76.77,8.258],[-76.775,8.417],[-76.802,8.43],[-76.839,8.5],[-76.947,8.545],[-76.894,8.62],[-76.66,8.687],[-76.647,8.747],[-76.56,8.775],[-76.445,8.87],[-76.412,8.84],[-76.389,8.739],[-76.346,8.675],[-76.278,8.642],[-76.229,8.578],[-76.214,8.453],[-76.217,8.41],[-76.318,8.281],[-76.419,8.099],[-76.419,7.979],[-76.505,7.741],[-76.498,7.6],[-76.408,7.38],[-75.857,7.367],[-75.769,7.499],[-75.59,7.57],[-75.547,7.689],[-75.49,7.739],[-75.459,7.808],[-75.362,7.884],[-75.229,8.046],[-74.943,8.073],[-74.886,8.154],[-74.835,8.189],[-74.6,7.998],[-74.552,7.929],[-74.522,7.772],[-74.481,7.724],[-74.499,7.678],[-74.574,7.606],[-74.586,7.493],[-74.563,7.424],[-74.508,7.363],[-74.469,7.361],[-74.364,7.489],[-74.347,7.433],[-74.396,7.343],[-74.405,7.2],[-74.344,7.01],[-74.253,6.996],[-73.93,7.301],[-73.927,7.126],[-73.888,7.02],[-73.925,6.975],[-74.016,6.928],[-74.109,6.79],[-74.293,6.654],[-74.386,6.626],[-74.409,6.567],[-74.406,6.475],[-74.379,6.423],[-74.58,6.216],[-74.605,6.136],[-74.578,6.079],[-74.574,6.002],[-74.605,5.978],[-74.591,5.918],[-74.64,5.862],[-74.662,5.772],[-74.715,5.773],[-74.744,5.7],[-74.777,5.69],[-74.867,5.744],[-74.991,5.714],[-75.022,5.677],[-75.091,5.66],[-75.092,5.596],[-75.134,5.535],[-75.216,5.503],[-75.276,5.434],[-75.291,5.474],[-75.318,5.464],[-75.316,5.517],[-75.34,5.587],[-75.377,5.619],[-75.385,5.674],[-75.426,5.694],[-75.487,5.67],[-75.601,5.735],[-75.613,5.701],[-75.592,5.683],[-75.586,5.519],[-75.687,5.529],[-75.725,5.559],[-75.858,5.489],[-75.925,5.494],[-75.983,5.521],[-76.098,5.643],[-76.088,5.728],[-76.136,5.837],[-76.105,5.93],[-76.111,5.976],[-76.189,5.998],[-76.217,6.035],[-76.258,6.174],[-76.35,6.192],[-76.649,6.159],[-76.714,6.178],[-76.771,6.287],[-76.798,6.301],[-76.784,6.363],[-76.805,6.423],[-76.784,6.438],[-76.803,6.451],[-76.788,6.483],[-76.853,6.54],[-76.866,6.582],[-76.893,6.582],[-76.896,6.615],[-76.866,6.64],[-76.901,6.65],[-76.906,6.694],[-76.932,6.672],[-76.945,6.702],[-76.97,6.705],[-76.949,6.732],[-76.973,6.81],[-76.883,6.845],[-76.836,6.841],[-76.811,6.863],[-76.802,6.927],[-76.836,6.986],[-76.817,7.008],[-76.683,7.026],[-76.546,6.991],[-76.505,7.074],[-76.508,7.186],[-76.543,7.267],[-76.692,7.354],[-76.877,7.565],[-76.981,7.639],[-77.126,7.781],[-77.113,7.788],[-77.12,7.842],[-77.093,7.837],[-77.022,7.898],[-77.003,7.999],[-76.96,8.065],[-76.961,8.17],[-76.985,8.256]]]}},{"type":"Feature","properties":{"n":"Córdoba"},"geometry":{"type":"Polygon","coordinates":[[[-76.445,8.87],[-76.427,8.911],[-76.324,8.941],[-76.264,8.996],[-76.255,9.071],[-76.193,9.135],[-76.168,9.247],[-76.117,9.266],[-76.096,9.333],[-75.977,9.383],[-75.944,9.441],[-75.91,9.428],[-75.811,9.444],[-75.798,9.418],[-75.853,9.412],[-75.825,9.412],[-75.812,9.392],[-75.762,9.422],[-75.698,9.417],[-75.699,9.354],[-75.465,9.238],[-75.43,9.153],[-75.213,9.042],[-75.222,9.023],[-75.198,8.983],[-75.209,8.924],[-75.297,8.897],[-75.357,8.842],[-75.305,8.491],[-75.184,8.402],[-75.078,8.453],[-74.943,8.486],[-74.809,8.351],[-74.801,8.25],[-74.943,8.073],[-75.229,8.046],[-75.362,7.884],[-75.459,7.808],[-75.49,7.739],[-75.547,7.689],[-75.59,7.57],[-75.769,7.499],[-75.857,7.367],[-76.408,7.38],[-76.498,7.6],[-76.505,7.741],[-76.419,7.979],[-76.419,8.099],[-76.318,8.281],[-76.217,8.41],[-76.214,8.453],[-76.229,8.578],[-76.278,8.642],[-76.346,8.675],[-76.389,8.739],[-76.412,8.84],[-76.445,8.87]]]}},{"type":"Feature","properties":{"n":"Sucre"},"geometry":{"type":"Polygon","coordinates":[[[-75.698,9.417],[-75.673,9.41],[-75.621,9.453],[-75.577,9.562],[-75.576,9.621],[-75.618,9.689],[-75.705,9.701],[-75.64,9.783],[-75.59,9.964],[-75.582,10.092],[-75.486,10.143],[-75.537,10.047],[-75.524,10.033],[-75.476,10.04],[-75.464,9.965],[-75.478,9.915],[-75.375,9.878],[-75.327,9.881],[-75.374,9.64],[-75.298,9.678],[-75.183,9.643],[-75.068,9.54],[-75.008,9.531],[-75.02,9.468],[-74.942,9.469],[-74.904,9.437],[-74.941,9.347],[-74.9,9.177],[-74.863,9.149],[-74.825,9.076],[-74.659,8.966],[-74.542,8.815],[-74.603,8.727],[-74.551,8.463],[-74.574,8.401],[-74.604,8.405],[-74.636,8.332],[-74.805,8.28],[-74.809,8.351],[-74.943,8.486],[-75.078,8.453],[-75.184,8.402],[-75.295,8.481],[-75.319,8.521],[-75.357,8.842],[-75.297,8.897],[-75.209,8.924],[-75.198,8.983],[-75.222,9.023],[-75.213,9.042],[-75.43,9.153],[-75.465,9.238],[-75.699,9.354],[-75.698,9.417]]]}},{"type":"Feature","properties":{"n":"Bolívar"},"geometry":{"type":"Polygon","coordinates":[[[-75.582,10.092],[-75.589,10.128],[-75.541,10.189],[-75.531,10.241],[-75.644,10.154],[-75.704,10.134],[-75.631,10.213],[-75.615,10.27],[-75.592,10.269],[-75.592,10.303],[-75.584,10.282],[-75.516,10.319],[-75.524,10.392],[-75.539,10.386],[-75.551,10.419],[-75.578,10.398],[-75.566,10.433],[-75.503,10.488],[-75.522,10.433],[-75.493,10.435],[-75.489,10.501],[-75.51,10.508],[-75.504,10.552],[-75.525,10.567],[-75.464,10.603],[-75.462,10.631],[-75.424,10.643],[-75.404,10.68],[-75.263,10.74],[-75.263,10.674],[-75.227,10.628],[-75.266,10.531],[-75.254,10.497],[-75.175,10.479],[-75.177,10.457],[-75.133,10.403],[-75.077,10.414],[-74.983,10.343],[-74.917,10.267],[-74.943,10.137],[-74.853,10.093],[-74.808,10.034],[-74.812,9.985],[-74.871,9.951],[-74.879,9.915],[-74.874,9.849],[-74.815,9.769],[-74.828,9.686],[-74.781,9.631],[-74.8,9.449],[-74.77,9.453],[-74.742,9.418],[-74.703,9.43],[-74.677,9.395],[-74.636,9.382],[-74.533,9.243],[-74.479,9.269],[-74.431,9.267],[-74.413,9.227],[-74.354,9.231],[-74.312,9.214],[-74.295,9.166],[-74.238,9.154],[-74.197,9.093],[-74.142,9.058],[-74.153,9.049],[-74.091,9.029],[-74.043,9.055],[-73.984,8.989],[-73.872,8.973],[-73.882,8.914],[-73.808,8.817],[-73.83,8.644],[-73.796,8.579],[-73.755,8.389],[-73.767,8.359],[-73.755,8.329],[-73.796,8.213],[-73.786,8.161],[-73.855,8.105],[-73.872,8.045],[-73.817,7.801],[-73.83,7.61],[-73.913,7.495],[-73.899,7.421],[-73.93,7.301],[-74.253,6.996],[-74.344,7.01],[-74.398,7.169],[-74.396,7.343],[-74.347,7.433],[-74.364,7.489],[-74.404,7.457],[-74.446,7.381],[-74.489,7.358],[-74.529,7.382],[-74.582,7.467],[-74.574,7.606],[-74.499,7.678],[-74.481,7.724],[-74.522,7.772],[-74.552,7.929],[-74.6,7.998],[-74.835,8.189],[-74.801,8.25],[-74.805,8.28],[-74.74,8.311],[-74.657,8.317],[-74.621,8.349],[-74.604,8.405],[-74.568,8.413],[-74.551,8.463],[-74.562,8.57],[-74.586,8.612],[-74.603,8.727],[-74.542,8.815],[-74.659,8.966],[-74.825,9.076],[-74.863,9.149],[-74.9,9.177],[-74.941,9.347],[-74.904,9.437],[-74.942,9.469],[-75.02,9.468],[-75.008,9.531],[-75.068,9.54],[-75.183,9.643],[-75.298,9.678],[-75.374,9.64],[-75.327,9.881],[-75.375,9.878],[-75.478,9.915],[-75.464,9.965],[-75.476,10.04],[-75.524,10.033],[-75.537,10.047],[-75.486,10.143],[-75.582,10.092]]]}},{"type":"Feature","properties":{"n":"Atlántico"},"geometry":{"type":"Polygon","coordinates":[[[-75.256,10.709],[-75.222,10.735],[-75.216,10.827],[-75.05,10.901],[-75.024,10.974],[-74.963,10.995],[-74.924,11.046],[-74.862,11.049],[-74.847,11.088],[-74.774,11.01],[-74.725,10.9],[-74.742,10.841],[-74.723,10.775],[-74.729,10.584],[-74.807,10.51],[-74.836,10.406],[-74.917,10.267],[-75.077,10.414],[-75.133,10.403],[-75.177,10.457],[-75.171,10.476],[-75.254,10.497],[-75.266,10.531],[-75.227,10.628],[-75.263,10.674],[-75.256,10.709]]]}},{"type":"Feature","properties":{"n":"Magdalena"},"geometry":{"type":"Polygon","coordinates":[[[-74.847,11.088],[-74.844,11.11],[-74.523,10.996],[-74.298,10.991],[-74.362,10.972],[-74.492,10.979],[-74.517,10.927],[-74.482,10.851],[-74.525,10.883],[-74.536,10.872],[-74.581,10.888],[-74.597,10.868],[-74.598,10.782],[-74.564,10.831],[-74.544,10.809],[-74.544,10.762],[-74.5,10.765],[-74.495,10.782],[-74.516,10.778],[-74.523,10.803],[-74.51,10.845],[-74.477,10.828],[-74.457,10.748],[-74.402,10.748],[-74.362,10.776],[-74.28,10.99],[-74.218,11.079],[-74.236,11.125],[-74.234,11.241],[-74.187,11.317],[-74.152,11.32],[-74.153,11.344],[-74.139,11.324],[-74.112,11.337],[-74.112,11.358],[-74.084,11.331],[-74.065,11.352],[-74.005,11.355],[-73.826,11.277],[-73.566,11.277],[-73.582,11.191],[-73.638,11.139],[-73.651,11.0],[-73.606,10.846],[-73.646,10.771],[-73.564,10.744],[-73.614,10.65],[-73.598,10.549],[-73.571,10.512],[-73.77,10.391],[-73.92,10.357],[-74.051,10.17],[-74.069,10.079],[-74.008,9.958],[-73.842,9.79],[-73.843,9.74],[-73.784,9.597],[-73.801,9.578],[-73.826,9.597],[-73.876,9.569],[-74.027,9.591],[-74.137,9.498],[-74.001,9.399],[-73.995,9.342],[-73.956,9.295],[-73.959,9.203],[-73.879,9.184],[-73.855,9.118],[-73.8,9.056],[-73.87,8.888],[-73.885,8.944],[-73.872,8.973],[-73.984,8.989],[-74.043,9.055],[-74.091,9.029],[-74.153,9.049],[-74.142,9.058],[-74.197,9.093],[-74.238,9.154],[-74.295,9.166],[-74.312,9.214],[-74.354,9.231],[-74.413,9.227],[-74.431,9.267],[-74.479,9.269],[-74.533,9.243],[-74.636,9.382],[-74.677,9.395],[-74.703,9.43],[-74.742,9.418],[-74.77,9.453],[-74.8,9.449],[-74.781,9.631],[-74.828,9.686],[-74.815,9.769],[-74.874,9.849],[-74.879,9.915],[-74.871,9.951],[-74.812,9.985],[-74.804,10.025],[-74.853,10.093],[-74.932,10.126],[-74.948,10.166],[-74.924,10.254],[-74.836,10.406],[-74.807,10.51],[-74.748,10.55],[-74.726,10.605],[-74.723,10.775],[-74.742,10.841],[-74.729,10.919],[-74.774,11.01],[-74.847,11.088]]]}},{"type":"Feature","properties":{"n":"Caquetá"},"geometry":{"type":"Polygon","coordinates":[[[-75.156,2.524],[-75.003,2.638],[-75.004,2.685],[-75.05,2.724],[-75.053,2.768],[-75.02,2.835],[-74.923,2.942],[-74.898,2.951],[-74.713,2.897],[-74.662,2.796],[-74.596,2.721],[-74.659,2.383],[-74.646,2.318],[-74.544,2.182],[-74.549,2.143],[-74.616,2.043],[-74.607,1.962],[-74.551,1.871],[-73.918,1.635],[-73.675,1.625],[-73.665,1.584],[-73.564,1.437],[-73.497,1.381],[-73.443,1.302],[-73.426,1.209],[-73.247,1.028],[-73.199,1.009],[-73.135,0.942],[-73.063,0.925],[-73.011,0.948],[-72.938,1.025],[-72.893,1.047],[-72.871,1.158],[-72.826,1.195],[-72.761,1.153],[-72.739,1.197],[-72.671,1.191],[-72.545,1.104],[-72.474,1.085],[-72.428,1.042],[-72.403,0.947],[-72.362,0.933],[-72.347,0.877],[-72.312,0.884],[-72.312,0.814],[-72.264,0.785],[-72.238,0.737],[-72.152,0.728],[-72.098,0.704],[-72.078,0.669],[-72.02,0.655],[-71.995,0.576],[-71.979,0.565],[-71.961,0.58],[-71.933,0.555],[-71.936,0.487],[-71.843,0.417],[-71.847,0.356],[-71.787,0.373],[-71.689,0.258],[-71.539,0.178],[-71.421,0.192],[-71.322,0.133],[-71.39,0.067],[-71.689,-0.086],[-71.774,-0.225],[-71.845,-0.246],[-72.012,-0.248],[-72.129,-0.326],[-72.232,-0.467],[-72.242,-0.587],[-72.28,-0.621],[-72.325,-0.629],[-72.422,-0.557],[-72.564,-0.685],[-72.75,-0.559],[-72.885,-0.602],[-72.997,-0.527],[-73.081,-0.594],[-73.165,-0.608],[-73.206,-0.605],[-73.332,-0.507],[-73.389,-0.531],[-73.554,-0.521],[-73.586,-0.471],[-73.64,-0.458],[-73.644,-0.422],[-73.696,-0.394],[-73.787,-0.407],[-73.942,-0.37],[-74.117,-0.246],[-74.169,-0.258],[-74.193,-0.22],[-74.24,-0.228],[-74.282,-0.149],[-74.328,-0.123],[-74.399,-0.132],[-74.43,-0.083],[-74.47,-0.126],[-74.593,-0.102],[-74.61,-0.064],[-74.664,-0.054],[-74.684,0.006],[-74.658,0.054],[-74.696,0.075],[-74.677,0.11],[-74.683,0.151],[-74.743,0.2],[-74.855,0.222],[-74.962,0.271],[-74.996,0.47],[-75.072,0.473],[-75.096,0.507],[-75.187,0.496],[-75.216,0.552],[-75.212,0.619],[-75.263,0.729],[-75.318,0.751],[-75.459,0.749],[-75.6,0.847],[-75.732,0.848],[-75.828,0.879],[-75.9,0.954],[-75.933,1.031],[-76.061,1.044],[-76.16,1.133],[-76.255,1.138],[-76.295,1.185],[-76.282,1.34],[-76.165,1.563],[-76.145,1.576],[-75.981,1.564],[-75.841,1.681],[-75.626,1.965],[-75.551,2.033],[-75.421,2.247],[-75.306,2.345],[-75.231,2.531],[-75.208,2.547],[-75.156,2.524]]]}},{"type":"Feature","properties":{"n":"Huila"},"geometry":{"type":"Polygon","coordinates":[[[-74.898,2.951],[-74.977,2.892],[-75.053,2.768],[-75.05,2.724],[-75.004,2.685],[-75.003,2.638],[-75.122,2.534],[-75.156,2.524],[-75.208,2.547],[-75.231,2.531],[-75.306,2.345],[-75.421,2.247],[-75.551,2.033],[-75.626,1.965],[-75.841,1.681],[-75.96,1.573],[-76.006,1.56],[-76.145,1.576],[-76.347,1.639],[-76.409,1.685],[-76.504,1.823],[-76.577,1.88],[-76.601,1.959],[-76.562,2.024],[-76.567,2.1],[-76.537,2.129],[-76.455,2.113],[-76.419,2.126],[-76.422,2.164],[-76.357,2.272],[-76.393,2.367],[-76.379,2.42],[-76.278,2.356],[-76.234,2.352],[-76.05,2.421],[-75.966,2.491],[-75.878,2.427],[-75.844,2.428],[-75.795,2.475],[-75.823,2.53],[-75.781,2.67],[-75.806,2.72],[-76.031,2.93],[-75.974,2.948],[-75.855,2.891],[-75.812,2.892],[-75.782,2.948],[-75.628,3.09],[-75.57,3.233],[-75.492,3.347],[-75.387,3.379],[-75.355,3.409],[-75.316,3.412],[-75.258,3.374],[-75.213,3.41],[-75.178,3.389],[-75.143,3.432],[-75.036,3.434],[-75.068,3.301],[-74.966,3.279],[-74.909,3.29],[-74.777,3.441],[-74.775,3.515],[-74.734,3.56],[-74.728,3.609],[-74.564,3.772],[-74.494,3.704],[-74.498,3.675],[-74.616,3.485],[-74.652,3.26],[-74.681,3.21],[-74.825,3.107],[-74.898,2.951]]]}},{"type":"Feature","properties":{"n":"Guaviare"},"geometry":{"type":"Polygon","coordinates":[[[-73.083,0.924],[-73.176,0.968],[-73.199,1.009],[-73.247,1.028],[-73.426,1.209],[-73.443,1.302],[-73.665,1.584],[-73.66,2.253],[-73.627,2.366],[-73.598,2.386],[-73.585,2.363],[-73.53,2.383],[-73.51,2.352],[-73.455,2.347],[-73.445,2.386],[-73.427,2.331],[-73.395,2.344],[-73.377,2.329],[-73.363,2.354],[-73.344,2.329],[-73.318,2.347],[-73.25,2.344],[-73.247,2.372],[-73.215,2.388],[-73.145,2.362],[-73.124,2.394],[-73.102,2.382],[-73.061,2.413],[-73.021,2.411],[-72.93,2.468],[-72.938,2.514],[-72.82,2.597],[-72.79,2.601],[-72.737,2.56],[-72.703,2.607],[-72.67,2.614],[-72.642,2.563],[-72.61,2.621],[-72.577,2.58],[-72.573,2.629],[-72.536,2.642],[-72.554,2.675],[-72.507,2.665],[-72.422,2.694],[-72.367,2.738],[-72.31,2.717],[-72.284,2.752],[-72.252,2.698],[-72.248,2.755],[-72.193,2.773],[-72.197,2.834],[-72.181,2.854],[-72.121,2.867],[-72.079,2.827],[-71.98,2.799],[-71.837,2.831],[-71.792,2.861],[-71.759,2.817],[-71.743,2.882],[-71.683,2.84],[-71.65,2.863],[-71.644,2.819],[-71.623,2.816],[-71.561,2.856],[-71.469,2.852],[-71.443,2.876],[-71.382,2.846],[-71.357,2.875],[-71.33,2.858],[-71.293,2.905],[-71.274,2.872],[-71.225,2.855],[-71.169,2.884],[-71.128,2.864],[-71.041,2.873],[-70.987,2.855],[-70.98,2.813],[-70.97,2.865],[-70.924,2.828],[-70.904,2.858],[-70.89,2.816],[-70.849,2.829],[-70.811,2.792],[-70.748,2.814],[-70.735,2.783],[-70.686,2.823],[-70.695,2.869],[-70.65,2.832],[-70.593,2.842],[-70.5,2.785],[-70.909,2.602],[-70.747,2.529],[-70.676,2.438],[-70.622,2.328],[-70.503,2.276],[-70.493,2.245],[-70.407,2.263],[-70.304,2.226],[-70.285,2.258],[-70.19,2.252],[-70.051,2.287],[-69.995,2.22],[-70.0,2.198],[-70.103,2.122],[-70.105,2.101],[-70.202,2.031],[-70.444,1.988],[-70.499,1.952],[-70.673,1.901],[-70.905,1.919],[-70.968,1.853],[-71.16,1.756],[-71.264,1.673],[-71.391,1.732],[-71.405,1.599],[-71.441,1.548],[-71.552,1.262],[-71.553,1.216],[-71.505,1.115],[-71.528,1.117],[-71.553,1.161],[-71.61,1.043],[-71.673,0.982],[-71.757,0.971],[-71.787,0.917],[-72.036,0.664],[-72.078,0.669],[-72.098,0.704],[-72.152,0.728],[-72.238,0.737],[-72.264,0.785],[-72.312,0.814],[-72.312,0.884],[-72.347,0.877],[-72.362,0.933],[-72.403,0.947],[-72.428,1.042],[-72.474,1.085],[-72.545,1.104],[-72.703,1.204],[-72.739,1.197],[-72.761,1.153],[-72.818,1.198],[-72.858,1.174],[-72.893,1.047],[-73.033,0.932],[-73.083,0.924]]]}},{"type":"Feature","properties":{"n":"Caldas"},"geometry":{"type":"Polygon","coordinates":[[[-74.662,5.772],[-74.632,5.703],[-74.66,5.574],[-74.641,5.563],[-74.678,5.549],[-74.66,5.526],[-74.66,5.458],[-74.749,5.291],[-74.833,5.314],[-75.013,5.294],[-75.063,5.269],[-75.125,5.164],[-75.171,5.174],[-75.223,5.142],[-75.294,5.132],[-75.348,5.06],[-75.317,5.027],[-75.354,4.939],[-75.331,4.879],[-75.378,4.8],[-75.492,4.919],[-75.611,4.934],[-75.638,4.974],[-75.667,4.947],[-75.706,4.949],[-75.748,5.045],[-75.819,4.92],[-75.858,4.932],[-75.896,4.973],[-75.927,5.043],[-75.888,5.124],[-75.838,5.111],[-75.804,5.208],[-75.817,5.272],[-75.752,5.284],[-75.692,5.257],[-75.644,5.304],[-75.719,5.396],[-75.803,5.365],[-75.856,5.374],[-75.858,5.489],[-75.725,5.559],[-75.687,5.529],[-75.586,5.519],[-75.592,5.683],[-75.613,5.701],[-75.613,5.735],[-75.556,5.721],[-75.487,5.67],[-75.426,5.694],[-75.385,5.674],[-75.377,5.619],[-75.34,5.587],[-75.316,5.517],[-75.318,5.464],[-75.291,5.474],[-75.276,5.434],[-75.216,5.503],[-75.134,5.535],[-75.092,5.596],[-75.091,5.66],[-75.022,5.677],[-74.991,5.714],[-74.867,5.744],[-74.777,5.69],[-74.744,5.7],[-74.715,5.773],[-74.662,5.772]]]}},{"type":"Feature","properties":{"n":"Casanare"},"geometry":{"type":"Polygon","coordinates":[[[-72.322,6.351],[-72.351,6.288],[-72.323,6.226],[-72.246,6.127],[-72.131,6.069],[-71.946,6.15],[-71.856,6.155],[-71.722,6.2],[-71.462,6.199],[-71.207,6.274],[-70.96,6.222],[-70.864,6.215],[-70.789,6.233],[-70.672,6.209],[-70.505,6.225],[-70.348,6.279],[-70.118,6.25],[-70.039,6.161],[-69.94,6.115],[-69.888,6.04],[-69.856,6.026],[-69.987,5.779],[-70.091,5.645],[-70.185,5.587],[-70.343,5.568],[-70.449,5.533],[-70.662,5.405],[-70.696,5.314],[-70.888,5.155],[-70.96,5.118],[-71.049,4.93],[-71.215,4.816],[-71.275,4.807],[-71.565,4.682],[-71.686,4.608],[-71.809,4.578],[-72.012,4.399],[-72.07,4.394],[-72.089,4.423],[-72.15,4.451],[-72.323,4.41],[-72.367,4.344],[-72.433,4.355],[-72.505,4.321],[-72.56,4.355],[-72.595,4.306],[-72.68,4.321],[-72.718,4.298],[-72.748,4.313],[-72.753,4.349],[-72.784,4.351],[-72.813,4.426],[-72.837,4.43],[-72.927,4.525],[-72.995,4.65],[-73.041,4.694],[-73.066,4.83],[-73.031,4.985],[-72.974,4.979],[-72.906,5.083],[-72.953,5.16],[-72.938,5.24],[-72.858,5.346],[-72.808,5.384],[-72.69,5.278],[-72.59,5.354],[-72.421,5.558],[-72.398,5.564],[-72.348,5.51],[-72.319,5.506],[-72.303,5.584],[-72.238,5.683],[-72.311,5.774],[-72.447,5.854],[-72.448,5.874],[-72.393,5.901],[-72.341,6.079],[-72.416,6.204],[-72.354,6.334],[-72.322,6.351]]]}},{"type":"Feature","properties":{"n":"Meta"},"geometry":{"type":"Polygon","coordinates":[[[-74.898,2.951],[-74.825,3.107],[-74.681,3.21],[-74.652,3.26],[-74.616,3.485],[-74.521,3.621],[-74.494,3.704],[-74.465,3.678],[-74.428,3.68],[-74.224,4.01],[-74.123,4.005],[-74.023,4.094],[-73.96,4.111],[-73.919,4.154],[-73.814,4.204],[-73.752,4.202],[-73.811,4.421],[-73.71,4.518],[-73.622,4.484],[-73.581,4.421],[-73.552,4.321],[-73.528,4.3],[-73.487,4.286],[-73.366,4.322],[-73.221,4.283],[-73.144,4.226],[-73.053,4.735],[-72.927,4.525],[-72.837,4.43],[-72.813,4.426],[-72.784,4.351],[-72.753,4.349],[-72.748,4.313],[-72.726,4.301],[-72.68,4.321],[-72.595,4.306],[-72.56,4.355],[-72.505,4.321],[-72.433,4.355],[-72.367,4.344],[-72.323,4.41],[-72.15,4.451],[-72.05,4.388],[-71.974,4.422],[-71.809,4.578],[-71.686,4.608],[-71.565,4.682],[-71.275,4.807],[-71.215,4.816],[-71.06,4.919],[-71.064,2.869],[-71.128,2.864],[-71.169,2.884],[-71.225,2.855],[-71.265,2.865],[-71.303,2.905],[-71.33,2.858],[-71.357,2.875],[-71.382,2.846],[-71.443,2.876],[-71.469,2.852],[-71.561,2.856],[-71.623,2.816],[-71.644,2.819],[-71.65,2.863],[-71.683,2.84],[-71.743,2.882],[-71.759,2.817],[-71.792,2.861],[-71.837,2.831],[-71.98,2.799],[-72.079,2.827],[-72.121,2.867],[-72.192,2.848],[-72.193,2.773],[-72.248,2.755],[-72.252,2.698],[-72.284,2.752],[-72.31,2.717],[-72.367,2.738],[-72.422,2.694],[-72.507,2.665],[-72.554,2.675],[-72.536,2.642],[-72.573,2.629],[-72.577,2.58],[-72.61,2.621],[-72.642,2.563],[-72.67,2.614],[-72.703,2.607],[-72.737,2.56],[-72.79,2.601],[-72.82,2.597],[-72.938,2.514],[-72.93,2.468],[-73.021,2.411],[-73.061,2.413],[-73.102,2.382],[-73.124,2.394],[-73.145,2.362],[-73.215,2.388],[-73.247,2.372],[-73.25,2.344],[-73.318,2.347],[-73.344,2.329],[-73.363,2.354],[-73.377,2.329],[-73.395,2.344],[-73.427,2.331],[-73.445,2.386],[-73.455,2.347],[-73.51,2.352],[-73.53,2.383],[-73.577,2.361],[-73.607,2.383],[-73.627,2.366],[-73.66,2.253],[-73.661,1.642],[-73.675,1.625],[-73.918,1.635],[-74.551,1.871],[-74.607,1.962],[-74.616,2.043],[-74.549,2.143],[-74.544,2.182],[-74.646,2.318],[-74.659,2.383],[-74.596,2.721],[-74.662,2.796],[-74.713,2.897],[-74.898,2.951]]]}},{"type":"Feature","properties":{"n":"Bogota"},"geometry":{"type":"Polygon","coordinates":[[[-74.154,4.007],[-74.224,4.01],[-74.428,3.68],[-74.465,3.678],[-74.494,3.704],[-74.37,3.909],[-74.372,4.034],[-74.342,4.113],[-74.328,4.126],[-74.273,4.099],[-74.263,4.109],[-74.251,4.196],[-74.214,4.256],[-74.192,4.394],[-74.216,4.399],[-74.179,4.501],[-74.189,4.582],[-74.225,4.629],[-74.166,4.668],[-74.175,4.699],[-74.134,4.731],[-74.081,4.836],[-74.011,4.815],[-74.014,4.682],[-74.031,4.651],[-73.995,4.632],[-74.014,4.567],[-74.116,4.43],[-74.108,4.342],[-74.153,4.249],[-74.094,4.142],[-74.133,4.088],[-74.154,4.007]]]}},{"type":"Feature","properties":{"n":"Santander"},"geometry":{"type":"Polygon","coordinates":[[[-73.625,7.735],[-73.544,7.67],[-73.497,7.601],[-73.36,7.55],[-73.261,7.545],[-73.248,7.597],[-73.216,7.63],[-72.991,7.613],[-72.984,7.547],[-72.903,7.476],[-72.898,7.429],[-72.842,7.358],[-72.845,7.301],[-72.881,7.256],[-72.837,7.208],[-72.83,7.162],[-72.879,7.06],[-72.793,7.031],[-72.745,6.989],[-72.689,7.005],[-72.67,6.973],[-72.651,6.995],[-72.561,6.999],[-72.547,6.885],[-72.505,6.915],[-72.478,6.844],[-72.481,6.722],[-72.542,6.561],[-72.542,6.503],[-72.617,6.438],[-72.662,6.435],[-72.709,6.529],[-72.762,6.574],[-72.792,6.567],[-72.794,6.533],[-72.733,6.457],[-72.756,6.32],[-72.748,6.241],[-72.799,6.203],[-72.817,6.153],[-72.894,6.123],[-72.992,6.0],[-73.017,5.941],[-73.127,5.955],[-73.195,5.991],[-73.219,5.982],[-73.286,5.856],[-73.351,5.863],[-73.415,5.755],[-73.468,5.813],[-73.472,5.848],[-73.401,5.922],[-73.382,6.001],[-73.438,6.07],[-73.499,6.107],[-73.535,6.042],[-73.578,6.007],[-73.614,5.922],[-73.638,5.723],[-73.737,5.761],[-73.879,5.711],[-73.894,5.747],[-73.973,5.733],[-74.008,5.752],[-74.049,5.814],[-74.088,5.824],[-74.111,5.871],[-74.175,5.901],[-74.234,5.846],[-74.257,5.848],[-74.27,5.898],[-74.239,5.982],[-74.27,6.05],[-74.29,6.071],[-74.357,6.039],[-74.42,6.074],[-74.48,6.155],[-74.519,6.282],[-74.379,6.423],[-74.406,6.475],[-74.409,6.567],[-74.386,6.626],[-74.293,6.654],[-74.109,6.79],[-74.016,6.928],[-73.925,6.975],[-73.888,7.02],[-73.927,7.126],[-73.937,7.254],[-73.899,7.421],[-73.913,7.495],[-73.835,7.595],[-73.816,7.78],[-73.872,8.045],[-73.855,8.105],[-73.786,8.161],[-73.779,8.098],[-73.729,7.987],[-73.67,7.929],[-73.677,7.893],[-73.744,7.831],[-73.752,7.741],[-73.625,7.735]]]}},{"type":"Feature","properties":{"n":"Tolima"},"geometry":{"type":"Polygon","coordinates":[[[-74.564,3.772],[-74.728,3.609],[-74.734,3.56],[-74.775,3.515],[-74.777,3.441],[-74.909,3.29],[-74.966,3.279],[-75.068,3.301],[-75.036,3.434],[-75.143,3.432],[-75.178,3.389],[-75.213,3.41],[-75.258,3.374],[-75.316,3.412],[-75.355,3.409],[-75.387,3.379],[-75.492,3.347],[-75.57,3.233],[-75.628,3.09],[-75.782,2.948],[-75.812,2.892],[-75.855,2.891],[-75.974,2.948],[-76.031,2.93],[-76.045,3.036],[-76.113,3.106],[-76.044,3.314],[-76.065,3.358],[-76.049,3.442],[-75.997,3.559],[-75.962,3.712],[-75.858,3.87],[-75.796,4.008],[-75.745,4.042],[-75.762,4.079],[-75.601,4.296],[-75.582,4.427],[-75.513,4.559],[-75.422,4.637],[-75.39,4.709],[-75.378,4.8],[-75.331,4.879],[-75.354,4.939],[-75.317,5.027],[-75.348,5.06],[-75.339,5.086],[-75.28,5.139],[-75.242,5.136],[-75.171,5.174],[-75.125,5.164],[-75.063,5.269],[-75.013,5.294],[-74.833,5.314],[-74.749,5.291],[-74.742,5.27],[-74.75,5.026],[-74.729,4.985],[-74.763,4.964],[-74.75,4.889],[-74.771,4.863],[-74.767,4.787],[-74.828,4.722],[-74.791,4.652],[-74.818,4.608],[-74.806,4.505],[-74.891,4.28],[-74.784,4.284],[-74.749,4.243],[-74.655,4.209],[-74.581,4.273],[-74.524,4.243],[-74.48,4.133],[-74.525,4.052],[-74.532,3.984],[-74.511,3.937],[-74.564,3.772]]]}},{"type":"Feature","properties":{"n":"Quindío"},"geometry":{"type":"Polygon","coordinates":[[[-75.39,4.717],[-75.428,4.627],[-75.505,4.57],[-75.559,4.476],[-75.601,4.296],[-75.711,4.137],[-75.762,4.079],[-75.83,4.109],[-75.838,4.154],[-75.79,4.288],[-75.788,4.351],[-75.809,4.397],[-75.89,4.424],[-75.867,4.458],[-75.877,4.553],[-75.862,4.613],[-75.825,4.664],[-75.716,4.659],[-75.703,4.72],[-75.533,4.699],[-75.485,4.671],[-75.39,4.717]]]}},{"type":"Feature","properties":{"n":"Cundinamarca"},"geometry":{"type":"Polygon","coordinates":[[[-74.494,3.704],[-74.564,3.772],[-74.511,3.937],[-74.532,3.984],[-74.525,4.052],[-74.48,4.133],[-74.524,4.243],[-74.581,4.273],[-74.655,4.209],[-74.749,4.243],[-74.784,4.284],[-74.891,4.28],[-74.806,4.505],[-74.818,4.608],[-74.791,4.652],[-74.828,4.722],[-74.767,4.787],[-74.771,4.863],[-74.75,4.889],[-74.763,4.964],[-74.729,4.985],[-74.75,5.026],[-74.735,5.108],[-74.751,5.302],[-74.66,5.458],[-74.66,5.526],[-74.68,5.54],[-74.641,5.563],[-74.66,5.574],[-74.632,5.703],[-74.646,5.753],[-74.534,5.791],[-74.441,5.767],[-74.348,5.826],[-74.313,5.793],[-74.288,5.682],[-74.314,5.614],[-74.257,5.545],[-74.244,5.484],[-74.148,5.453],[-74.098,5.456],[-74.089,5.42],[-74.0,5.374],[-73.907,5.442],[-73.899,5.482],[-73.798,5.564],[-73.792,5.508],[-73.654,5.462],[-73.59,5.386],[-73.585,5.305],[-73.522,5.237],[-73.476,5.066],[-73.518,5.024],[-73.514,4.991],[-73.545,4.932],[-73.523,4.888],[-73.412,4.878],[-73.366,4.82],[-73.368,4.798],[-73.329,4.784],[-73.296,4.73],[-73.228,4.724],[-73.218,4.678],[-73.113,4.664],[-73.053,4.735],[-73.138,4.23],[-73.221,4.283],[-73.366,4.322],[-73.487,4.286],[-73.528,4.3],[-73.552,4.321],[-73.581,4.421],[-73.622,4.484],[-73.697,4.521],[-73.811,4.421],[-73.752,4.202],[-73.814,4.204],[-73.919,4.154],[-73.96,4.111],[-74.023,4.094],[-74.123,4.005],[-74.154,4.007],[-74.133,4.088],[-74.094,4.142],[-74.153,4.249],[-74.108,4.342],[-74.116,4.43],[-74.014,4.567],[-73.995,4.632],[-74.031,4.651],[-74.014,4.682],[-74.011,4.815],[-74.085,4.833],[-74.134,4.731],[-74.175,4.699],[-74.166,4.668],[-74.225,4.629],[-74.189,4.582],[-74.179,4.501],[-74.216,4.399],[-74.192,4.394],[-74.214,4.256],[-74.251,4.196],[-74.263,4.109],[-74.273,4.099],[-74.328,4.126],[-74.342,4.113],[-74.372,4.034],[-74.37,3.909],[-74.494,3.704]]]}},{"type":"Feature","properties":{"n":"Risaralda"},"geometry":{"type":"Polygon","coordinates":[[[-75.858,5.489],[-75.856,5.374],[-75.803,5.365],[-75.719,5.396],[-75.644,5.304],[-75.692,5.257],[-75.752,5.284],[-75.817,5.272],[-75.804,5.208],[-75.838,5.111],[-75.888,5.124],[-75.927,5.043],[-75.896,4.973],[-75.858,4.932],[-75.819,4.92],[-75.748,5.045],[-75.706,4.949],[-75.667,4.947],[-75.638,4.974],[-75.611,4.934],[-75.492,4.919],[-75.378,4.8],[-75.39,4.717],[-75.441,4.685],[-75.492,4.672],[-75.533,4.699],[-75.854,4.732],[-75.852,4.777],[-75.894,4.761],[-75.924,4.775],[-75.94,4.822],[-75.922,4.872],[-75.981,4.873],[-75.986,4.911],[-76.076,5.036],[-76.098,5.175],[-76.18,5.309],[-76.166,5.409],[-76.093,5.455],[-76.08,5.538],[-76.042,5.577],[-75.96,5.507],[-75.858,5.489]]]}}]}